{
  "norad_id": 65499,
  "name": "STARLINK-35166",
  "history": [
    {
      "epoch": "2026-03-28T17:57:55.218528Z",
      "apogee_km": 475.8677121893188,
      "perigee_km": 474.52158078731645,
      "latitude_deg": -2.247428659621512e-05,
      "longitude_deg": 87.1384599521583,
      "height_km": 475.6945703698509,
      "semi_major_axis_km": 6853.331646488317,
      "eccentricity": 9.821e-05,
      "inclination_deg": 53.1568,
      "raan_deg": 182.7831,
      "arg_perigee_deg": 53.7003,
      "mean_anomaly_deg": 306.4088,
      "mean_motion_rev_day": 15.3020684
    }
  ]
}